{"type": "FeatureCollection", "features": [ {"type": "Feature", "properties": {"norad_id": 41836, "name": "HIMAWARI-9", "group": "weather", "lat": 0.0160957668643114, "lon": -175.0179455917891, "alt_km": 35792.007489871794, "timestamp": "2025-12-24T20:42:20.661839+00:00", "meta": {"OBJECT_NAME": "HIMAWARI-9", "OBJECT_ID": "2016-064A", "EPOCH": "2025-12-23T22:52:38.784288", "MEAN_MOTION": 1.00271828, "ECCENTRICITY": 0.00016373, "INCLINATION": 0.0175, "RA_OF_ASC_NODE": 40.3208, "ARG_OF_PERICENTER": 292.8784, "MEAN_ANOMALY": 243.4785, "EPHEMERIS_TYPE": 0, "CLASSIFICATION_TYPE": "U", "NORAD_CAT_ID": 41836, "ELEMENT_SET_NO": 999, "REV_AT_EPOCH": 3345, "BSTAR": 0, "MEAN_MOTION_DOT": 0, "MEAN_MOTION_DDOT": 0}, "tle": {"line1": "1 41836U 16064A   25357.95322667  .00000000  00000+0  00000+0 0  9999", "line2": "2 41836   0.0175  40.3208 0001637 292.8784 243.4785  1.00271828 33458"}}, "geometry": {"type": "Point", "coordinates": [-175.0179455917891, 0.0160957668643114]}}, {"type": "Feature", "properties": {"norad_id": 41866, "name": "GOES 16", "group": "weather", "lat": -0.04204344253118137, "lon": -60.432454663588985, "alt_km": 35774.90983463914, "timestamp": "2025-12-24T20:42:20.661851+00:00", "meta": {"OBJECT_NAME": "GOES 16", "OBJECT_ID": "2016-071A", "EPOCH": "2025-12-24T04:56:56.433408", "MEAN_MOTION": 1.00271814, "ECCENTRICITY": 0.00031453, "INCLINATION": 0.0748, "RA_OF_ASC_NODE": 102.0172, "ARG_OF_PERICENTER": 164.4838, "MEAN_ANOMALY": 156.055, "EPHEMERIS_TYPE": 0, "CLASSIFICATION_TYPE": "U", "NORAD_CAT_ID": 41866, "ELEMENT_SET_NO": 999, "REV_AT_EPOCH": 3334, "BSTAR": 0, "MEAN_MOTION_DOT": -7e-07, "MEAN_MOTION_DDOT": 0}, "tle": {"line1": "1 41866U 16071A   25358.20620872 -.00000070  00000+0  00000+0 0  9996", "line2": "2 41866   0.0748 102.0172 0003145 164.4838 156.0550  1.00271814 33345"}}, "geometry": {"type": "Point", "coordinates": [-60.432454663588985, -0.04204344253118137]}}, {"type": "Feature", "properties": {"norad_id": 41882, "name": "FENGYUN 4A", "group": "weather", "lat": 1.8822551849802465, "lon": 167.78666844102648, "alt_km": 35778.14192254484, "timestamp": "2025-12-24T20:42:20.661864+00:00", "meta": {"OBJECT_NAME": "FENGYUN 4A", "OBJECT_ID": "2016-077A", "EPOCH": "2025-12-24T06:50:26.113344", "MEAN_MOTION": 1.00263706, "ECCENTRICITY": 0.00044804, "INCLINATION": 1.8765, "RA_OF_ASC_NODE": 82.2781, "ARG_OF_PERICENTER": 143.0978, "MEAN_ANOMALY": 93.9313, "EPHEMERIS_TYPE": 0, "CLASSIFICATION_TYPE": "U", "NORAD_CAT_ID": 41882, "ELEMENT_SET_NO": 999, "REV_AT_EPOCH": 3317, "BSTAR": 0, "MEAN_MOTION_DOT": -3.37e-06, "MEAN_MOTION_DDOT": 0}, "tle": {"line1": "1 41882U 16077A   25358.28502446 -.00000337  00000+0  00000+0 0  9990", "line2": "2 41882   1.8765  82.2781 0004480 143.0978  93.9313  1.00263706 33175"}}, "geometry": {"type": "Point", "coordinates": [167.78666844102648, 1.8822551849802465]}}, {"type": "Feature", "properties": {"norad_id": 41884, "name": "CYGFM05", "group": "weather", "lat": -6.260211804765152, "lon": -41.1168291948923, "alt_km": 418.4586158819029, "timestamp": "2025-12-24T20:42:20.661875+00:00", "meta": {"OBJECT_NAME": "CYGFM05", "OBJECT_ID": "2016-078A", "EPOCH": "2025-12-24T05:16:32.899872", "MEAN_MOTION": 15.48056923, "ECCENTRICITY": 0.00106253, "INCLINATION": 34.9606, "RA_OF_ASC_NODE": 332.1186, "ARG_OF_PERICENTER": 282.376, "MEAN_ANOMALY": 77.5773, "EPHEMERIS_TYPE": 0, "CLASSIFICATION_TYPE": "U", "NORAD_CAT_ID": 41884, "ELEMENT_SET_NO": 999, "REV_AT_EPOCH": 50154, "BSTAR": 0.00039063872, "MEAN_MOTION_DOT": 0.00021143, "MEAN_MOTION_DDOT": 0}, "tle": {"line1": "1 41884U 16078A   25358.21982523  .00021143  00000+0  39064-3 0  9997", "line2": "2 41884  34.9606 332.1186 0010625 282.3760  77.5773 15.48056923501545"}}, "geometry": {"type": "Point", "coordinates": [-41.1168291948923, -6.260211804765152]}}, {"type": "Feature", "properties": {"norad_id": 41885, "name": "CYGFM04", "group": "weather", "lat": -6.2195241836038315, "lon": -66.64291972384869, "alt_km": 408.73785110683457, "timestamp": "2025-12-24T20:42:20.661885+00:00", "meta": {"OBJECT_NAME": "CYGFM04", "OBJECT_ID": "2016-078B", "EPOCH": "2025-12-24T03:45:30.157056", "MEAN_MOTION": 15.5083976, "ECCENTRICITY": 0.00092946, "INCLINATION": 34.9353, "RA_OF_ASC_NODE": 306.9755, "ARG_OF_PERICENTER": 306.3575, "MEAN_ANOMALY": 53.6289, "EPHEMERIS_TYPE": 0, "CLASSIFICATION_TYPE": "U", "NORAD_CAT_ID": 41885, "ELEMENT_SET_NO": 999, "REV_AT_EPOCH": 50171, "BSTAR": 0.00041478685, "MEAN_MOTION_DOT": 0.00024779, "MEAN_MOTION_DDOT": 0}, "tle": {"line1": "1 41885U 16078B   25358.15659904  .00024779  00000+0  41479-3 0  9996", "line2": "2 41885  34.9353 306.9755 0009294 306.3575  53.6289 15.50839760501714"}}, "geometry": {"type": "Point", "coordinates": [-66.64291972384869, -6.2195241836038315]}}, {"type": "Feature", "properties": {"norad_id": 41886, "name": "CYGFM02", "group": "weather", "lat": 30.79427326099943, "lon": -0.8952168882653418, "alt_km": 406.6660310687139, "timestamp": "2025-12-24T20:42:20.661895+00:00", "meta": {"OBJECT_NAME": "CYGFM02", "OBJECT_ID": "2016-078C", "EPOCH": "2025-12-24T03:27:19.833120", "MEAN_MOTION": 15.52250586, "ECCENTRICITY": 0.00109047, "INCLINATION": 34.9441, "RA_OF_ASC_NODE": 305.2353, "ARG_OF_PERICENTER": 307.6197, "MEAN_ANOMALY": 52.3535, "EPHEMERIS_TYPE": 0, "CLASSIFICATION_TYPE": "U", "NORAD_CAT_ID": 41886, "ELEMENT_SET_NO": 999, "REV_AT_EPOCH": 50184, "BSTAR": 0.00039758477, "MEAN_MOTION_DOT": 0.00025004, "MEAN_MOTION_DDOT": 0}, "tle": {"line1": "1 41886U 16078C   25358.14397955  .00025004  00000+0  39758-3 0  9990", "line2": "2 41886  34.9441 305.2353 0010904 307.6197  52.3535 15.52250586501842"}}, "geometry": {"type": "Point", "coordinates": [-0.8952168882653418, 30.79427326099943]}}, {"type": "Feature", "properties": {"norad_id": 41887, "name": "CYGFM01", "group": "weather", "lat": 29.38181785046527, "lon": 23.92359895694207, "alt_km": 420.3012926164902, "timestamp": "2025-12-24T20:42:20.661906+00:00", "meta": {"OBJECT_NAME": "CYGFM01", "OBJECT_ID": "2016-078D", "EPOCH": "2025-12-24T06:31:41.746080", "MEAN_MOTION": 15.48651052, "ECCENTRICITY": 0.00104085, "INCLINATION": 34.9436, "RA_OF_ASC_NODE": 334.0447, "ARG_OF_PERICENTER": 275.2665, "MEAN_ANOMALY": 84.6869, "EPHEMERIS_TYPE": 0, "CLASSIFICATION_TYPE": "U", "NORAD_CAT_ID": 41887, "ELEMENT_SET_NO": 999, "REV_AT_EPOCH": 50149, "BSTAR": 0.00040597241, "MEAN_MOTION_DOT": 0.00022441, "MEAN_MOTION_DDOT": 0}, "tle": {"line1": "1 41887U 16078D   25358.27201095  .00022441  00000+0  40597-3 0  9999", "line2": "2 41887  34.9436 334.0447 0010408 275.2665  84.6869 15.48651052501497"}}, "geometry": {"type": "Point", "coordinates": [23.92359895694207, 29.38181785046527]}}, {"type": "Feature", "properties": {"norad_id": 41888, "name": "CYGFM08", "group": "weather", "lat": 10.843875029593551, "lon": 117.10750622578473, "alt_km": 420.6522015686651, "timestamp": "2025-12-24T20:42:20.661917+00:00", "meta": {"OBJECT_NAME": "CYGFM08", "OBJECT_ID": "2016-078E", "EPOCH": "2025-12-24T06:06:07.479072", "MEAN_MOTION": 15.49887318, "ECCENTRICITY": 0.001161, "INCLINATION": 34.9466, "RA_OF_ASC_NODE": 317.0171, "ARG_OF_PERICENTER": 298.3091, "MEAN_ANOMALY": 61.646, "EPHEMERIS_TYPE": 0, "CLASSIFICATION_TYPE": "U", "NORAD_CAT_ID": 41888, "ELEMENT_SET_NO": 999, "REV_AT_EPOCH": 50172, "BSTAR": 0.00040991288, "MEAN_MOTION_DOT": 0.00023689, "MEAN_MOTION_DDOT": 0}, "tle": {"line1": "1 41888U 16078E   25358.25425323  .00023689  00000+0  40991-3 0  9993", "line2": "2 41888  34.9466 317.0171 0011610 298.3091  61.6460 15.49887318501726"}}, "geometry": {"type": "Point", "coordinates": [117.10750622578473, 10.843875029593551]}}, {"type": "Feature", "properties": {"norad_id": 41890, "name": "CYGFM07", "group": "weather", "lat": 3.2502563595556277, "lon": 117.27592494437498, "alt_km": 418.94922389830026, "timestamp": "2025-12-24T20:42:20.661928+00:00", "meta": {"OBJECT_NAME": "CYGFM07", "OBJECT_ID": "2016-078G", "EPOCH": "2025-12-24T04:30:16.863552", "MEAN_MOTION": 15.50478038, "ECCENTRICITY": 0.00095557, "INCLINATION": 34.948, "RA_OF_ASC_NODE": 306.3693, "ARG_OF_PERICENTER": 312.2172, "MEAN_ANOMALY": 47.7739, "EPHEMERIS_TYPE": 0, "CLASSIFICATION_TYPE": "U", "NORAD_CAT_ID": 41890, "ELEMENT_SET_NO": 999, "REV_AT_EPOCH": 50173, "BSTAR": 0.00041713865, "MEAN_MOTION_DOT": 0.00024601, "MEAN_MOTION_DDOT": 0}, "tle": {"line1": "1 41890U 16078G   25358.18769518  .00024601  00000+0  41714-3 0  9994", "line2": "2 41890  34.9480 306.3693 0009555 312.2172  47.7739 15.50478038501738"}}, "geometry": {"type": "Point", "coordinates": [117.27592494437498, 3.2502563595556277]}}, {"type": "Feature", "properties": {"norad_id": 41891, "name": "CYGFM03", "group": "weather", "lat": 2.599626301828124, "lon": -52.40479942855479, "alt_km": 410.78529899430305, "timestamp": "2025-12-24T20:42:20.661938+00:00", "meta": {"OBJECT_NAME": "CYGFM03", "OBJECT_ID": "2016-078H", "EPOCH": "2025-12-24T05:13:56.561664", "MEAN_MOTION": 15.50374029, "ECCENTRICITY": 0.00093426, "INCLINATION": 34.9436, "RA_OF_ASC_NODE": 308.0966, "ARG_OF_PERICENTER": 299.8769, "MEAN_ANOMALY": 60.1025, "EPHEMERIS_TYPE": 0, "CLASSIFICATION_TYPE": "U", "NORAD_CAT_ID": 41891, "ELEMENT_SET_NO": 999, "REV_AT_EPOCH": 50171, "BSTAR": 0.00040581852, "MEAN_MOTION_DOT": 0.00023839, "MEAN_MOTION_DDOT": 0}, "tle": {"line1": "1 41891U 16078H   25358.21801576  .00023839  00000+0  40582-3 0  9994", "line2": "2 41891  34.9436 308.0966 0009342 299.8769  60.1025 15.50374029501718"}}, "geometry": {"type": "Point", "coordinates": [-52.40479942855479, 2.599626301828124]}}]}